{
  "norad_id": 58685,
  "name": "STARLINK-31121",
  "history": [
    {
      "epoch": "2026-05-05T00:26:32.272512Z",
      "apogee_km": 483.47276377508024,
      "perigee_km": 482.6433825146387,
      "latitude_deg": -2.396987721780415e-05,
      "longitude_deg": -102.74493011720759,
      "height_km": 482.8436869786096,
      "semi_major_axis_km": 6861.19507314486,
      "eccentricity": 6.044e-05,
      "inclination_deg": 42.9996,
      "raan_deg": 126.789,
      "arg_perigee_deg": 268.6656,
      "mean_anomaly_deg": 91.4126,
      "mean_motion_rev_day": 15.27577002
    },
    {
      "epoch": "2026-05-06T01:33:01.381248Z",
      "apogee_km": 483.62887435744324,
      "perigee_km": 482.3334952441519,
      "latitude_deg": -4.460279246684366e-05,
      "longitude_deg": -126.306494992635,
      "height_km": 483.0879216328893,
      "semi_major_axis_km": 6861.118184800797,
      "eccentricity": 9.44e-05,
      "inclination_deg": 43.0004,
      "raan_deg": 120.8799,
      "arg_perigee_deg": 239.3132,
      "mean_anomaly_deg": 120.7626,
      "mean_motion_rev_day": 15.2760268
    },
    {
      "epoch": "2026-05-07T08:56:10.461984Z",
      "apogee_km": 483.75686882894297,
      "perigee_km": 482.373650453399,
      "latitude_deg": -1.6243804786329114e-05,
      "longitude_deg": 114.2329227010069,
      "height_km": 482.8080068200519,
      "semi_major_axis_km": 6861.202259641171,
      "eccentricity": 0.0001008,
      "inclination_deg": 43.0013,
      "raan_deg": 113.4961,
      "arg_perigee_deg": 272.7988,
      "mean_anomaly_deg": 87.2748,
      "mean_motion_rev_day": 15.27574602
    },
    {
      "epoch": "2026-05-08T06:54:21.504960Z",
      "apogee_km": 483.6819254668262,
      "perigee_km": 482.40300161482264,
      "latitude_deg": 3.4441053207419136e-06,
      "longitude_deg": 138.61486339379022,
      "height_km": 482.789057370278,
      "semi_major_axis_km": 6861.179463540824,
      "eccentricity": 9.32e-05,
      "inclination_deg": 43.0026,
      "raan_deg": 108.3263,
      "arg_perigee_deg": 272.6888,
      "mean_anomaly_deg": 87.3857,
      "mean_motion_rev_day": 15.27582215
    },
    {
      "epoch": "2026-05-09T06:26:42.345024Z",
      "apogee_km": 483.6762175155973,
      "perigee_km": 482.4204833727581,
      "latitude_deg": 1.2523507457137956e-05,
      "longitude_deg": 139.02211953985338,
      "height_km": 482.8415808804071,
      "semi_major_axis_km": 6861.185350444177,
      "eccentricity": 9.151e-05,
      "inclination_deg": 43.0028,
      "raan_deg": 102.7871,
      "arg_perigee_deg": 268.4815,
      "mean_anomaly_deg": 91.5932,
      "mean_motion_rev_day": 15.27580249
    },
    {
      "epoch": "2026-05-10T07:33:13.224096Z",
      "apogee_km": 483.60569813706115,
      "perigee_km": 482.5230005641333,
      "latitude_deg": 2.8941893975541556e-05,
      "longitude_deg": 115.45429985172743,
      "height_km": 482.7922734507904,
      "semi_major_axis_km": 6861.2013493505965,
      "eccentricity": 7.89e-05,
      "inclination_deg": 43.0027,
      "raan_deg": 96.8791,
      "arg_perigee_deg": 275.1452,
      "mean_anomaly_deg": 84.931,
      "mean_motion_rev_day": 15.27574906
    },
    {
      "epoch": "2026-05-11T07:05:33.437760Z",
      "apogee_km": 483.6412733985035,
      "perigee_km": 482.46951896108476,
      "latitude_deg": 1.354394172396092e-05,
      "longitude_deg": 115.86424885075067,
      "height_km": 482.83341360916035,
      "semi_major_axis_km": 6861.192396179794,
      "eccentricity": 8.539e-05,
      "inclination_deg": 43.0036,
      "raan_deg": 91.34,
      "arg_perigee_deg": 269.8642,
      "mean_anomaly_deg": 90.2112,
      "mean_motion_rev_day": 15.27577896
    },
    {
      "epoch": "2026-05-12T20:45:19.582272Z",
      "apogee_km": 483.61640900679686,
      "perigee_km": 482.5254769438643,
      "latitude_deg": -3.7086796046744646e-05,
      "longitude_deg": -99.48633054596375,
      "height_km": 482.84506978470904,
      "semi_major_axis_km": 6861.20794297533,
      "eccentricity": 7.95e-05,
      "inclination_deg": 43.003,
      "raan_deg": 82.4785,
      "arg_perigee_deg": 270.2509,
      "mean_anomaly_deg": 89.8251,
      "mean_motion_rev_day": 15.27572704
    },
    {
      "epoch": "2026-05-13T06:10:16.345632Z",
      "apogee_km": 483.6608126322535,
      "perigee_km": 482.50263891134273,
      "latitude_deg": 4.102017231685227e-05,
      "longitude_deg": 116.67494714459103,
      "height_km": 482.9147471969089,
      "semi_major_axis_km": 6861.218725771798,
      "eccentricity": 8.44e-05,
      "inclination_deg": 43.0034,
      "raan_deg": 80.2629,
      "arg_perigee_deg": 264.4071,
      "mean_anomaly_deg": 95.6685,
      "mean_motion_rev_day": 15.27569103
    },
    {
      "epoch": "2026-05-13T06:10:16.346496Z",
      "apogee_km": 483.6609498566286,
      "perigee_km": 482.50250168696857,
      "latitude_deg": 4.259442160478994e-05,
      "longitude_deg": 116.6749452133688,
      "height_km": 482.91476056803765,
      "semi_major_axis_km": 6861.218725771798,
      "eccentricity": 8.442e-05,
      "inclination_deg": 43.0034,
      "raan_deg": 80.2629,
      "arg_perigee_deg": 264.4071,
      "mean_anomaly_deg": 95.6685,
      "mean_motion_rev_day": 15.27569103
    },
    {
      "epoch": "2026-05-15T05:14:56.921568Z",
      "apogee_km": 483.8409397194773,
      "perigee_km": 482.24036419682943,
      "latitude_deg": 3.998663542385275e-05,
      "longitude_deg": 117.49445795296849,
      "height_km": 483.06142852708035,
      "semi_major_axis_km": 6861.177651958154,
      "eccentricity": 0.00011664,
      "inclination_deg": 43.0049,
      "raan_deg": 69.1849,
      "arg_perigee_deg": 252.2625,
      "mean_anomaly_deg": 107.81,
      "mean_motion_rev_day": 15.2758282
    }
  ]
}